{
  "country": [
    {
      "code": "AD",
      "currency": "EUR",
      "dialCode": "+376",
      "flag": "ðŸ‡¦ðŸ‡©",
      "name": "Andorra",
      "nationality": "Andorran"
    },
    {
      "code": "AE",
      "currency": "AED",
      "dialCode": "+971",
      "flag": "ðŸ‡¦ðŸ‡ª",
      "name": "United Arab Emirates",
      "nationality": "Emirati"
    },
    {
      "code": "AF",
      "currency": "AFN",
      "dialCode": "+93",
      "flag": "ðŸ‡¦ðŸ‡«",
      "name": "Afghanistan",
      "nationality": "Afghan"
    },
    {
      "code": "AG",
      "currency": "XCD",
      "dialCode": "+1",
      "flag": "ðŸ‡¦ðŸ‡¬",
      "name": "Antigua and Barbuda",
      "nationality": "Antiguan, Barbudan"
    },
    {
      "code": "AI",
      "currency": "XCD",
      "dialCode": "+1",
      "flag": "ðŸ‡¦ðŸ‡®",
      "name": "Anguilla",
      "nationality": "Anguillian"
    },
    {
      "code": "AL",
      "currency": "ALL",
      "dialCode": "+355",
      "flag": "ðŸ‡¦ðŸ‡±",
      "name": "Albania",
      "nationality": "Albanian"
    },
    {
      "code": "AM",
      "currency": "AMD",
      "dialCode": "+374",
      "flag": "ðŸ‡¦ðŸ‡²",
      "name": "Armenia",
      "nationality": "Armenian"
    },
    {
      "code": "AO",
      "currency": "AOA",
      "dialCode": "+244",
      "flag": "ðŸ‡¦ðŸ‡´",
      "name": "Angola",
      "nationality": "Angolan"
    },
    {
      "code": "AQ",
      "currency": "USD",
      "dialCode": "+672",
      "flag": "ðŸ‡¦ðŸ‡¶",
      "name": "Antarctica",
      "nationality": "Antarctica"
    },
    {
      "code": "AR",
      "currency": "ARS",
      "dialCode": "+54",
      "flag": "ðŸ‡¦ðŸ‡·",
      "name": "Argentina",
      "nationality": "Argentinean"
    },
    {
      "code": "AS",
      "currency": "USD",
      "dialCode": "+1",
      "flag": "ðŸ‡¦ðŸ‡¸",
      "name": "American Samoa",
      "nationality": "American Samoan"
    },
    {
      "code": "AT",
      "currency": "EUR",
      "dialCode": "+43",
      "flag": "ðŸ‡¦ðŸ‡¹",
      "name": "Austria",
      "nationality": "Austrian"
    },
    {
      "code": "AU",
      "currency": "AUD",
      "dialCode": "+61",
      "flag": "ðŸ‡¦ðŸ‡º",
      "name": "Australia",
      "nationality": "Australian"
    },
    {
      "code": "AW",
      "currency": "AWG",
      "dialCode": "+297",
      "flag": "ðŸ‡¦ðŸ‡¼",
      "name": "Aruba",
      "nationality": "Aruban"
    },
    {
      "code": "AX",
      "currency": "EUR",
      "dialCode": "+358",
      "flag": "ðŸ‡¦ðŸ‡½",
      "name": "Aland Islands",
      "nationality": "Swedish"
    },
    {
      "code": "AZ",
      "currency": "AZN",
      "dialCode": "+994",
      "flag": "ðŸ‡¦ðŸ‡¿",
      "name": "Azerbaijan",
      "nationality": "Azerbaijani"
    },
    {
      "code": "BA",
      "currency": "BAM",
      "dialCode": "+387",
      "flag": "ðŸ‡§ðŸ‡¦",
      "name": "Bosnia and Herzegovina",
      "nationality": "Bosnian, Herzegovinian"
    },
    {
      "code": "BB",
      "currency": "BBD",
      "dialCode": "+1",
      "flag": "ðŸ‡§ðŸ‡§",
      "name": "Barbados",
      "nationality": "Barbadian"
    },
    {
      "code": "BD",
      "currency": "BDT",
      "dialCode": "+880",
      "flag": "ðŸ‡§ðŸ‡©",
      "name": "Bangladesh",
      "nationality": "Bangladeshi"
    },
    {
      "code": "BE",
      "currency": "EUR",
      "dialCode": "+32",
      "flag": "ðŸ‡§ðŸ‡ª",
      "name": "Belgium",
      "nationality": "Belgian"
    },
    {
      "code": "BF",
      "currency": "XOF",
      "dialCode": "+226",
      "flag": "ðŸ‡§ðŸ‡«",
      "name": "Burkina Faso",
      "nationality": "Burkinabe"
    },
    {
      "code": "BG",
      "currency": "BGN",
      "dialCode": "+359",
      "flag": "ðŸ‡§ðŸ‡¬",
      "name": "Bulgaria",
      "nationality": "Bulgarian"
    },
    {
      "code": "BH",
      "currency": "BHD",
      "dialCode": "+973",
      "flag": "ðŸ‡§ðŸ‡­",
      "name": "Bahrain",
      "nationality": "Bahraini"
    },
    {
      "code": "BI",
      "currency": "BIF",
      "dialCode": "+257",
      "flag": "ðŸ‡§ðŸ‡®",
      "name": "Burundi",
      "nationality": "Burundian"
    },
    {
      "code": "BJ",
      "currency": "XOF",
      "dialCode": "+229",
      "flag": "ðŸ‡§ðŸ‡¯",
      "name": "Benin",
      "nationality": "Beninese"
    },
    {
      "code": "BL",
      "currency": "EUR",
      "dialCode": "+590",
      "flag": "ðŸ‡§ðŸ‡±",
      "name": "Saint BarthÃ©lemy",
      "nationality": "Saint BarthÃ©lemy Islander"
    },
    {
      "code": "BM",
      "currency": "BMD",
      "dialCode": "+1441",
      "flag": "ðŸ‡§ðŸ‡²",
      "name": "Bermuda",
      "nationality": "Bermudian"
    },
    {
      "code": "BN",
      "currency": "BND",
      "dialCode": "+673",
      "flag": "ðŸ‡§ðŸ‡³",
      "name": "Brunei",
      "nationality": "Bruneian"
    },
    {
      "code": "BO",
      "currency": "BOB",
      "dialCode": "+591",
      "flag": "ðŸ‡§ðŸ‡´",
      "name": "Bolivia",
      "nationality": "Bolivian"
    },
    {
      "code": "BQ",
      "currency": "USD",
      "dialCode": "+599",
      "flag": "ðŸ‡§ðŸ‡¶",
      "name": "British Antarctic Territory",
      "nationality": "Dutch"
    },
    {
      "code": "BR",
      "currency": "BRL",
      "dialCode": "+55",
      "flag": "ðŸ‡§ðŸ‡·",
      "name": "Brazil",
      "nationality": "Brazilian"
    },
    {
      "code": "BS",
      "currency": "BSD",
      "dialCode": "+1242",
      "flag": "ðŸ‡§ðŸ‡¸",
      "name": "Bahamas",
      "nationality": "Bahamian"
    },
    {
      "code": "BT",
      "currency": "BTN",
      "dialCode": "+975",
      "flag": "ðŸ‡§ðŸ‡¹",
      "name": "Bhutan",
      "nationality": "Bhutanese"
    },
    {
      "code": "BV",
      "currency": "NOK",
      "dialCode": "+47",
      "flag": "ðŸ‡§ðŸ‡»",
      "name": "Bouvet Island",
      "nationality": "BouvetÃ¸ya"
    },
    {
      "code": "BW",
      "currency": "BWP",
      "dialCode": "+267",
      "flag": "ðŸ‡§ðŸ‡¼",
      "name": "Botswana",
      "nationality": "Motswana"
    },
    {
      "code": "BY",
      "currency": "BYR",
      "dialCode": "+375",
      "flag": "ðŸ‡§ðŸ‡¾",
      "name": "Belarus",
      "nationality": "Belarusian"
    },
    {
      "code": "BZ",
      "currency": "BZD",
      "dialCode": "+501",
      "flag": "ðŸ‡§ðŸ‡¿",
      "name": "Belize",
      "nationality": "Belizean"
    },
    {
      "code": "CA",
      "currency": "CAD",
      "dialCode": "+1",
      "flag": "ðŸ‡¨ðŸ‡¦",
      "name": "Canada",
      "nationality": "Canadian"
    },
    {
      "code": "CC",
      "currency": "AUD",
      "dialCode": "+61",
      "flag": "ðŸ‡¨ðŸ‡¨",
      "name": "Cocos (Keeling) Islands",
      "nationality": "Cocos Islander"
    },
    {
      "code": "CD",
      "currency": "CDF",
      "dialCode": "+243",
      "flag": "ðŸ‡¨ðŸ‡©",
      "name": "Congo - Kinshasa",
      "nationality": "Congolese"
    },
    {
      "code": "CF",
      "currency": "XAF",
      "dialCode": "+236",
      "flag": "ðŸ‡¨ðŸ‡«",
      "name": "Central African Republic",
      "nationality": "Central African"
    },
    {
      "code": "CG",
      "currency": "XAF",
      "dialCode": "+242",
      "flag": "ðŸ‡¨ðŸ‡¬",
      "name": "Congo",
      "nationality": "Congolese"
    },
    {
      "code": "CH",
      "currency": "CHF",
      "dialCode": "+41",
      "flag": "ðŸ‡¨ðŸ‡­",
      "name": "Switzerland",
      "nationality": "Swiss"
    },
    {
      "code": "CI",
      "currency": "XOF",
      "dialCode": "+225",
      "flag": "ðŸ‡¨ðŸ‡®",
      "name": "Ivory Coast",
      "nationality": "Ivorian"
    },
    {
      "code": "CK",
      "currency": "NZD",
      "dialCode": "+682",
      "flag": "ðŸ‡¨ðŸ‡°",
      "name": "Cook Islands",
      "nationality": "Cook Islander"
    },
    {
      "code": "CL",
      "currency": "CLP",
      "dialCode": "+56",
      "flag": "ðŸ‡¨ðŸ‡±",
      "name": "Chile",
      "nationality": "Chilean"
    },
    {
      "code": "CM",
      "currency": "XAF",
      "dialCode": "+237",
      "flag": "ðŸ‡¨ðŸ‡²",
      "name": "Cameroon",
      "nationality": "Cameroonian"
    },
    {
      "code": "CN",
      "currency": "CNY",
      "dialCode": "+86",
      "flag": "ðŸ‡¨ðŸ‡³",
      "name": "China",
      "nationality": "Chinese"
    },
    {
      "code": "CO",
      "currency": "COP",
      "dialCode": "+57",
      "flag": "ðŸ‡¨ðŸ‡´",
      "name": "Colombia",
      "nationality": "Colombian"
    },
    {
      "code": "CR",
      "currency": "CRC",
      "dialCode": "+506",
      "flag": "ðŸ‡¨ðŸ‡·",
      "name": "Costa Rica",
      "nationality": "Costa Rican"
    },
    {
      "code": "CU",
      "currency": "CUP",
      "dialCode": "+53",
      "flag": "ðŸ‡¨ðŸ‡º",
      "name": "Cuba",
      "nationality": "Cuban"
    },
    {
      "code": "CV",
      "currency": "CVE",
      "dialCode": "+238",
      "flag": "ðŸ‡¨ðŸ‡»",
      "name": "Cape Verde",
      "nationality": "Cape Verdian"
    },
    {
      "code": "CW",
      "currency": "ANG",
      "dialCode": "+599",
      "flag": "ðŸ‡¨ðŸ‡¼",
      "name": "Curacao",
      "nationality": "Dutch"
    },
    {
      "code": "CX",
      "currency": "AUD",
      "dialCode": "+61",
      "flag": "ðŸ‡¨ðŸ‡½",
      "name": "Christmas Island",
      "nationality": "Christmas Island"
    },
    {
      "code": "CY",
      "currency": "EUR",
      "dialCode": "+357",
      "flag": "ðŸ‡¨ðŸ‡¾",
      "name": "Cyprus",
      "nationality": "Cypriot"
    },
    {
      "code": "CZ",
      "currency": "CZK",
      "dialCode": "+420",
      "flag": "ðŸ‡¨ðŸ‡¿",
      "name": "Czech Republic",
      "nationality": "Czech"
    },
    {
      "code": "DE",
      "currency": "EUR",
      "dialCode": "+49",
      "flag": "ðŸ‡©ðŸ‡ª",
      "name": "Germany",
      "nationality": "German"
    },
    {
      "code": "DJ",
      "currency": "DJF",
      "dialCode": "+253",
      "flag": "ðŸ‡©ðŸ‡¯",
      "name": "Djibouti",
      "nationality": "Djibouti"
    },
    {
      "code": "DK",
      "currency": "DKK",
      "dialCode": "+45",
      "flag": "ðŸ‡©ðŸ‡°",
      "name": "Denmark",
      "nationality": "Danish"
    },
    {
      "code": "DM",
      "currency": "XCD",
      "dialCode": "+1",
      "flag": "ðŸ‡©ðŸ‡²",
      "name": "Dominica",
      "nationality": "Dominican"
    },
    {
      "code": "DO",
      "currency": "DOP",
      "dialCode": "+1",
      "flag": "ðŸ‡©ðŸ‡´",
      "name": "Dominican Republic",
      "nationality": "Dominican"
    },
    {
      "code": "DZ",
      "currency": "DZD",
      "dialCode": "+213",
      "flag": "ðŸ‡©ðŸ‡¿",
      "name": "Algeria",
      "nationality": "Algerian"
    },
    {
      "code": "EC",
      "currency": "USD",
      "dialCode": "+593",
      "flag": "ðŸ‡ªðŸ‡¨",
      "name": "Ecuador",
      "nationality": "Ecuadorean"
    },
    {
      "code": "EE",
      "currency": "EUR",
      "dialCode": "+372",
      "flag": "ðŸ‡ªðŸ‡ª",
      "name": "Estonia",
      "nationality": "Estonian"
    },
    {
      "code": "EG",
      "currency": "EGP",
      "dialCode": "+20",
      "flag": "ðŸ‡ªðŸ‡¬",
      "name": "Egypt",
      "nationality": "Egyptian"
    },
    {
      "code": "EH",
      "currency": "MAD",
      "dialCode": "+212",
      "flag": "ðŸ‡ªðŸ‡­",
      "name": "Western Sahara",
      "nationality": "Sahrawi"
    },
    {
      "code": "ER",
      "currency": "ERN",
      "dialCode": "+291",
      "flag": "ðŸ‡ªðŸ‡·",
      "name": "Eritrea",
      "nationality": "Eritrean"
    },
    {
      "code": "ES",
      "currency": "EUR",
      "dialCode": "+34",
      "flag": "ðŸ‡ªðŸ‡¸",
      "name": "Spain",
      "nationality": "Spanish"
    },
    {
      "code": "ET",
      "currency": "ETB",
      "dialCode": "+251",
      "flag": "ðŸ‡ªðŸ‡¹",
      "name": "Ethiopia",
      "nationality": "Ethiopian"
    },
    {
      "code": "FI",
      "currency": "EUR",
      "dialCode": "+358",
      "flag": "ðŸ‡«ðŸ‡®",
      "name": "Finland",
      "nationality": "Finnish"
    },
    {
      "code": "FJ",
      "currency": "FJD",
      "dialCode": "+679",
      "flag": "ðŸ‡«ðŸ‡¯",
      "name": "Fiji",
      "nationality": "Fijian"
    },
    {
      "code": "FK",
      "currency": "FKP",
      "dialCode": "+500",
      "flag": "ðŸ‡«ðŸ‡°",
      "name": "Falkland Islands (Malvinas)",
      "nationality": "Falkland Islander"
    },
    {
      "code": "FM",
      "currency": "USD",
      "dialCode": "+691",
      "flag": "ðŸ‡«ðŸ‡²",
      "name": "Micronesia",
      "nationality": "Micronesian"
    },
    {
      "code": "FO",
      "currency": "DKK",
      "dialCode": "+298",
      "flag": "ðŸ‡«ðŸ‡´",
      "name": "Faroe Islands",
      "nationality": "Faroese"
    },
    {
      "code": "FR",
      "currency": "EUR",
      "dialCode": "+33",
      "flag": "ðŸ‡«ðŸ‡·",
      "name": "France",
      "nationality": "French"
    },
    {
      "code": "GA",
      "currency": "XAF",
      "dialCode": "+241",
      "flag": "ðŸ‡¬ðŸ‡¦",
      "name": "Gabon",
      "nationality": "Gabonese"
    },
    {
      "code": "GB",
      "currency": "GBP",
      "dialCode": "+44",
      "flag": "ðŸ‡¬ðŸ‡§",
      "name": "United Kingdom",
      "nationality": "British"
    },
    {
      "code": "GD",
      "currency": "XCD",
      "dialCode": "+1",
      "flag": "ðŸ‡¬ðŸ‡©",
      "name": "Grenada",
      "nationality": "Grenadian"
    },
    {
      "code": "GE",
      "currency": "GEL",
      "dialCode": "+995",
      "flag": "ðŸ‡¬ðŸ‡ª",
      "name": "Georgia",
      "nationality": "Georgian"
    },
    {
      "code": "GF",
      "currency": "EUR",
      "dialCode": "+594",
      "flag": "ðŸ‡¬ðŸ‡«",
      "name": "French Guiana",
      "nationality": "French Guiana"
    },
    {
      "code": "GG",
      "currency": "GGP",
      "dialCode": "+44",
      "flag": "ðŸ‡¬ðŸ‡¬",
      "name": "Guernsey",
      "nationality": "Channel Islander"
    },
    {
      "code": "GH",
      "currency": "GHS",
      "dialCode": "+233",
      "flag": "ðŸ‡¬ðŸ‡­",
      "name": "Ghana",
      "nationality": "Ghanaian"
    },
    {
      "code": "GI",
      "currency": "GIP",
      "dialCode": "+350",
      "flag": "ðŸ‡¬ðŸ‡®",
      "name": "Gibraltar",
      "nationality": "Gibraltar"
    },
    {
      "code": "GL",
      "currency": "DKK",
      "dialCode": "+299",
      "flag": "ðŸ‡¬ðŸ‡±",
      "name": "Greenland",
      "nationality": "Greenlandic"
    },
    {
      "code": "GM",
      "currency": "GMD",
      "dialCode": "+220",
      "flag": "ðŸ‡¬ðŸ‡²",
      "name": "Gambia",
      "nationality": "Gambian"
    },
    {
      "code": "GN",
      "currency": "GNF",
      "dialCode": "+224",
      "flag": "ðŸ‡¬ðŸ‡³",
      "name": "Guinea",
      "nationality": "Guinean"
    },
    {
      "code": "GP",
      "currency": "EUR",
      "dialCode": "+590",
      "flag": "ðŸ‡¬ðŸ‡µ",
      "name": "Guadeloupe",
      "nationality": "Guadeloupian"
    },
    {
      "code": "GQ",
      "currency": "XAF",
      "dialCode": "+240",
      "flag": "ðŸ‡¬ðŸ‡¶",
      "name": "Equatorial Guinea",
      "nationality": "Equatorial Guinean"
    },
    {
      "code": "GR",
      "currency": "EUR",
      "dialCode": "+30",
      "flag": "ðŸ‡¬ðŸ‡·",
      "name": "Greece",
      "nationality": "Greek"
    },
    {
      "code": "GS",
      "currency": "GBP",
      "dialCode": "+500",
      "flag": "ðŸ‡¬ðŸ‡¸",
      "name": "South Georgia and the South Sandwich Islands",
      "nationality": "South Georgia and the South Sandwich Islander"
    },
    {
      "code": "GT",
      "currency": "GTQ",
      "dialCode": "+502",
      "flag": "ðŸ‡¬ðŸ‡¹",
      "name": "Guatemala",
      "nationality": "Guatemalan"
    },
    {
      "code": "GU",
      "currency": "USD",
      "dialCode": "+1",
      "flag": "ðŸ‡¬ðŸ‡º",
      "name": "Guam",
      "nationality": "Guamanian"
    },
    {
      "code": "GW",
      "currency": "XOF",
      "dialCode": "+245",
      "flag": "ðŸ‡¬ðŸ‡¼",
      "name": "Guinea-Bissau",
      "nationality": "Guinea-Bissauan"
    },
    {
      "code": "GY",
      "currency": "GYD",
      "dialCode": "+595",
      "flag": "ðŸ‡¬ðŸ‡¾",
      "name": "Guyana",
      "nationality": "Guyanese"
    },
    {
      "code": "HK",
      "currency": "HKD",
      "dialCode": "+852",
      "flag": "ðŸ‡­ðŸ‡°",
      "name": "Hong Kong",
      "nationality": "Chinese"
    },
    {
      "code": "HM",
      "currency": "AUD",
      "dialCode": "+000",
      "flag": "ðŸ‡­ðŸ‡²",
      "name": "Heard Island and McDonald Islands",
      "nationality": "Heard and McDonald Islander"
    },
    {
      "code": "HN",
      "currency": "HNL",
      "dialCode": "+504",
      "flag": "ðŸ‡­ðŸ‡³",
      "name": "Honduras",
      "nationality": "Honduran"
    },
    {
      "code": "HR",
      "currency": "HRK",
      "dialCode": "+385",
      "flag": "ðŸ‡­ðŸ‡·",
      "name": "Croatia",
      "nationality": "Croatian"
    },
    {
      "code": "HT",
      "currency": "HTG",
      "dialCode": "+509",
      "flag": "ðŸ‡­ðŸ‡¹",
      "name": "Haiti",
      "nationality": "Haitian"
    },
    {
      "code": "HU",
      "currency": "HUF",
      "dialCode": "+36",
      "flag": "ðŸ‡­ðŸ‡º",
      "name": "Hungary",
      "nationality": "Hungarian"
    },
    {
      "code": "ID",
      "currency": "IDR",
      "dialCode": "+62",
      "flag": "ðŸ‡®ðŸ‡©",
      "name": "Indonesia",
      "nationality": "Indonesian"
    },
    {
      "code": "IE",
      "currency": "EUR",
      "dialCode": "+353",
      "flag": "ðŸ‡®ðŸ‡ª",
      "name": "Ireland",
      "nationality": "Irish"
    },
    {
      "code": "IL",
      "currency": "ILS",
      "dialCode": "+972",
      "flag": "ðŸ‡®ðŸ‡±",
      "name": "Israel",
      "nationality": "Israeli"
    },
    {
      "code": "IM",
      "currency": "GBP",
      "dialCode": "+44",
      "flag": "ðŸ‡®ðŸ‡²",
      "name": "Isle of Man",
      "nationality": "Manx"
    },
    {
      "code": "IN",
      "currency": "INR",
      "dialCode": "+91",
      "flag": "ðŸ‡®ðŸ‡³",
      "name": "India",
      "nationality": "Indian"
    },
    {
      "code": "IO",
      "currency": "USD",
      "dialCode": "+246",
      "flag": "ðŸ‡®ðŸ‡´",
      "name": "British Indian Ocean Territory",
      "nationality": "Indian"
    },
    {
      "code": "IQ",
      "currency": "IQD",
      "dialCode": "+964",
      "flag": "ðŸ‡®ðŸ‡¶",
      "name": "Iraq",
      "nationality": "Iraqi"
    },
    {
      "code": "IR",
      "currency": "IRR",
      "dialCode": "+98",
      "flag": "ðŸ‡®ðŸ‡·",
      "name": "Iran",
      "nationality": "Iranian"
    },
    {
      "code": "IS",
      "currency": "ISK",
      "dialCode": "+354",
      "flag": "ðŸ‡®ðŸ‡¸",
      "name": "Iceland",
      "nationality": "Icelander"
    },
    {
      "code": "IT",
      "currency": "EUR",
      "dialCode": "+39",
      "flag": "ðŸ‡®ðŸ‡¹",
      "name": "Italy",
      "nationality": "Italian"
    },
    {
      "code": "JE",
      "currency": "JEP",
      "dialCode": "+44",
      "flag": "ðŸ‡¯ðŸ‡ª",
      "name": "Jersey",
      "nationality": "Channel Islander"
    },
    {
      "code": "JM",
      "currency": "JMD",
      "dialCode": "+1",
      "flag": "ðŸ‡¯ðŸ‡²",
      "name": "Jamaica",
      "nationality": "Jamaican"
    },
    {
      "code": "JO",
      "currency": "JOD",
      "dialCode": "+962",
      "flag": "ðŸ‡¯ðŸ‡´",
      "name": "Jordan",
      "nationality": "Jordanian"
    },
    {
      "code": "JP",
      "currency": "JPY",
      "dialCode": "+81",
      "flag": "ðŸ‡¯ðŸ‡µ",
      "name": "Japan",
      "nationality": "Japanese"
    },
    {
      "code": "KE",
      "currency": "KES",
      "dialCode": "+254",
      "flag": "ðŸ‡°ðŸ‡ª",
      "name": "Kenya",
      "nationality": "Kenyan"
    },
    {
      "code": "KG",
      "currency": "KGS",
      "dialCode": "+996",
      "flag": "ðŸ‡°ðŸ‡¬",
      "name": "Kyrgyzstan",
      "nationality": "Kirghiz"
    },
    {
      "code": "KH",
      "currency": "KHR",
      "dialCode": "+855",
      "flag": "ðŸ‡°ðŸ‡­",
      "name": "Cambodia",
      "nationality": "Cambodian"
    },
    {
      "code": "KI",
      "currency": "AUD",
      "dialCode": "+686",
      "flag": "ðŸ‡°ðŸ‡®",
      "name": "Kiribati",
      "nationality": "I-Kiribati"
    },
    {
      "code": "KM",
      "currency": "KMF",
      "dialCode": "+269",
      "flag": "ðŸ‡°ðŸ‡²",
      "name": "Comoros",
      "nationality": "Comoran"
    },
    {
      "code": "KN",
      "currency": "XCD",
      "dialCode": "+1",
      "flag": "ðŸ‡°ðŸ‡³",
      "name": "Saint Kitts and Nevis",
      "nationality": "Kittian and Nevisian"
    },
    {
      "code": "KP",
      "currency": "KPW",
      "dialCode": "+850",
      "flag": "ðŸ‡°ðŸ‡µ",
      "name": "North Korea",
      "nationality": "North Korean"
    },
    {
      "code": "KR",
      "currency": "KRW",
      "dialCode": "+82",
      "flag": "ðŸ‡°ðŸ‡·",
      "name": "South Korea",
      "nationality": "South Korean"
    },
    {
      "code": "KW",
      "currency": "KWD",
      "dialCode": "+965",
      "flag": "ðŸ‡°ðŸ‡¼",
      "name": "Kuwait",
      "nationality": "Kuwaiti"
    },
    {
      "code": "KY",
      "currency": "KYD",
      "dialCode": "+345",
      "flag": "ðŸ‡°ðŸ‡¾",
      "name": "Cayman Islands",
      "nationality": "Caymanian"
    },
    {
      "code": "KZ",
      "currency": "KZT",
      "dialCode": "+7",
      "flag": "ðŸ‡°ðŸ‡¿",
      "name": "Kazakhstan",
      "nationality": "Kazakhstani"
    },
    {
      "code": "LA",
      "currency": "LAK",
      "dialCode": "+856",
      "flag": "ðŸ‡±ðŸ‡¦",
      "name": "Lao People's Democratic Republic",
      "nationality": "Laotian"
    },
    {
      "code": "LB",
      "currency": "LBP",
      "dialCode": "+961",
      "flag": "ðŸ‡±ðŸ‡§",
      "name": "Lebanon",
      "nationality": "Lebanese"
    },
    {
      "code": "LC",
      "currency": "XCD",
      "dialCode": "+1",
      "flag": "ðŸ‡±ðŸ‡¨",
      "name": "Saint Lucia",
      "nationality": "Saint Lucian"
    },
    {
      "code": "LI",
      "currency": "CHF",
      "dialCode": "+423",
      "flag": "ðŸ‡±ðŸ‡®",
      "name": "Liechtenstein",
      "nationality": "Liechtensteiner"
    },
    {
      "code": "LK",
      "currency": "LKR",
      "dialCode": "+94",
      "flag": "ðŸ‡±ðŸ‡°",
      "name": "Sri Lanka",
      "nationality": "Sri Lankan"
    },
    {
      "code": "LR",
      "currency": "LRD",
      "dialCode": "+231",
      "flag": "ðŸ‡±ðŸ‡·",
      "name": "Liberia",
      "nationality": "Liberian"
    },
    {
      "code": "LS",
      "currency": "LSL",
      "dialCode": "+266",
      "flag": "ðŸ‡±ðŸ‡¸",
      "name": "Lesotho",
      "nationality": "Mosotho"
    },
    {
      "code": "LT",
      "currency": "LTL",
      "dialCode": "+370",
      "flag": "ðŸ‡±ðŸ‡¹",
      "name": "Lithuania",
      "nationality": "Lithuanian"
    },
    {
      "code": "LU",
      "currency": "EUR",
      "dialCode": "+352",
      "flag": "ðŸ‡±ðŸ‡º",
      "name": "Luxembourg",
      "nationality": "Luxembourger"
    },
    {
      "code": "LV",
      "currency": "LVL",
      "dialCode": "+371",
      "flag": "ðŸ‡±ðŸ‡»",
      "name": "Latvia",
      "nationality": "Latvian"
    },
    {
      "code": "LY",
      "currency": "LYD",
      "dialCode": "+218",
      "flag": "ðŸ‡±ðŸ‡¾",
      "name": "Libyan Arab Jamahiriya",
      "nationality": "Libyan"
    },
    {
      "code": "MA",
      "currency": "MAD",
      "dialCode": "+212",
      "flag": "ðŸ‡²ðŸ‡¦",
      "name": "Morocco",
      "nationality": "Moroccan"
    },
    {
      "code": "MC",
      "currency": "EUR",
      "dialCode": "+377",
      "flag": "ðŸ‡²ðŸ‡¨",
      "name": "Monaco",
      "nationality": "Monegasque"
    },
    {
      "code": "MD",
      "currency": "MDL",
      "dialCode": "+373",
      "flag": "ðŸ‡²ðŸ‡©",
      "name": "Moldova",
      "nationality": "Moldovan"
    },
    {
      "code": "ME",
      "currency": "EUR",
      "dialCode": "+382",
      "flag": "ðŸ‡²ðŸ‡ª",
      "name": "Montenegro",
      "nationality": "Montenegrin"
    },
    {
      "code": "MF",
      "currency": "EUR",
      "dialCode": "+590",
      "flag": "ðŸ‡²ðŸ‡«",
      "name": "Saint Martin",
      "nationality": "Saint Martin Islander"
    },
    {
      "code": "MG",
      "currency": "MGA",
      "dialCode": "+261",
      "flag": "ðŸ‡²ðŸ‡­",
      "name": "Madagascar",
      "nationality": "Malagasy"
    },
    {
      "code": "MH",
      "currency": "USD",
      "dialCode": "+692",
      "flag": "ðŸ‡²ðŸ‡­",
      "name": "Marshall Islands",
      "nationality": "Marshallese"
    },
    {
      "code": "MK",
      "currency": "MKD",
      "dialCode": "+389",
      "flag": "ðŸ‡²ðŸ‡°",
      "name": "Macedonia, The Former Yugoslav Republic of",
      "nationality": "Macedonian"
    },
    {
      "code": "ML",
      "currency": "XOF",
      "dialCode": "+223",
      "flag": "ðŸ‡²ðŸ‡±",
      "name": "Mali",
      "nationality": "Malian"
    },
    {
      "code": "MM",
      "currency": "MMK",
      "dialCode": "+95",
      "flag": "ðŸ‡²ðŸ‡²",
      "name": "Myanmar",
      "nationality": "Myanmar"
    },
    {
      "code": "MN",
      "currency": "MNT",
      "dialCode": "+976",
      "flag": "ðŸ‡²ðŸ‡³",
      "name": "Mongolia",
      "nationality": "Mongolian"
    },
    {
      "code": "MO",
      "currency": "MOP",
      "dialCode": "+853",
      "flag": "ðŸ‡²ðŸ‡´",
      "name": "Macao",
      "nationality": "Chinese"
    },
    {
      "code": "MP",
      "currency": "USD",
      "dialCode": "+1",
      "flag": "ðŸ‡²ðŸ‡µ",
      "name": "Northern Mariana Islands",
      "nationality": "American"
    },
    {
      "code": "MQ",
      "currency": "EUR",
      "dialCode": "+596",
      "flag": "ðŸ‡²ðŸ‡¶",
      "name": "Martinique",
      "nationality": "French"
    },
    {
      "code": "MR",
      "currency": "MRO",
      "dialCode": "+222",
      "flag": "ðŸ‡²ðŸ‡·",
      "name": "Mauritania",
      "nationality": "Mauritanian"
    },
    {
      "code": "MS",
      "currency": "XCD",
      "dialCode": "+1",
      "flag": "ðŸ‡²ðŸ‡¸",
      "name": "Montserrat",
      "nationality": "Montserratian"
    },
    {
      "code": "MT",
      "currency": "EUR",
      "dialCode": "+356",
      "flag": "ðŸ‡²ðŸ‡¹",
      "name": "Malta",
      "nationality": "Maltese"
    },
    {
      "code": "MU",
      "currency": "MUR",
      "dialCode": "+230",
      "flag": "ðŸ‡²ðŸ‡º",
      "name": "Mauritius",
      "nationality": "Mauritian"
    },
    {
      "code": "MV",
      "currency": "MVR",
      "dialCode": "+960",
      "flag": "ðŸ‡²ðŸ‡»",
      "name": "Maldives",
      "nationality": "Maldivan"
    },
    {
      "code": "MW",
      "currency": "MWK",
      "dialCode": "+265",
      "flag": "ðŸ‡²ðŸ‡¼",
      "name": "Malawi",
      "nationality": "Malawian"
    },
    {
      "code": "MX",
      "currency": "MXN",
      "dialCode": "+52",
      "flag": "ðŸ‡²ðŸ‡½",
      "name": "Mexico",
      "nationality": "Mexican"
    },
    {
      "code": "MY",
      "currency": "MYR",
      "dialCode": "+60",
      "flag": "ðŸ‡²ðŸ‡¾",
      "name": "Malaysia",
      "nationality": "Malaysian"
    },
    {
      "code": "MZ",
      "currency": "MZN",
      "dialCode": "+258",
      "flag": "ðŸ‡²ðŸ‡¿",
      "name": "Mozambique",
      "nationality": "Mozambican"
    },
    {
      "code": "NA",
      "currency": "NAD",
      "dialCode": "+264",
      "flag": "ðŸ‡³ðŸ‡¦",
      "name": "Namibia",
      "nationality": "Namibian"
    },
    {
      "code": "NC",
      "currency": "XPF",
      "dialCode": "+687",
      "flag": "ðŸ‡³ðŸ‡¨",
      "name": "New Caledonia",
      "nationality": "New Caledonian"
    },
    {
      "code": "NE",
      "currency": "XOF",
      "dialCode": "+227",
      "flag": "ðŸ‡³ðŸ‡ª",
      "name": "Niger",
      "nationality": "Nigerian"
    },
    {
      "code": "NF",
      "currency": "AUD",
      "dialCode": "+672",
      "flag": "ðŸ‡³ðŸ‡«",
      "name": "Norfolk Island",
      "nationality": "Norfolk Islander"
    },
    {
      "code": "NG",
      "currency": "NGN",
      "dialCode": "+234",
      "flag": "ðŸ‡³ðŸ‡¬",
      "name": "Nigeria",
      "nationality": "Nigerian"
    },
    {
      "code": "NI",
      "currency": "NIO",
      "dialCode": "+505",
      "flag": "ðŸ‡³ðŸ‡®",
      "name": "Nicaragua",
      "nationality": "Nicaraguan"
    },
    {
      "code": "NL",
      "currency": "EUR",
      "dialCode": "+31",
      "flag": "ðŸ‡³ðŸ‡±",
      "name": "Netherlands",
      "nationality": "Dutch"
    },
    {
      "code": "NO",
      "currency": "NOK",
      "dialCode": "+47",
      "flag": "ðŸ‡³ðŸ‡´",
      "name": "Norway",
      "nationality": "Norwegian"
    },
    {
      "code": "NP",
      "currency": "NPR",
      "dialCode": "+977",
      "flag": "ðŸ‡³ðŸ‡µ",
      "name": "Nepal",
      "nationality": "Nepalese"
    },
    {
      "code": "NR",
      "currency": "AUD",
      "dialCode": "+674",
      "flag": "ðŸ‡³ðŸ‡·",
      "name": "Nauru",
      "nationality": "Nauruan"
    },
    {
      "code": "NU",
      "currency": "NZD",
      "dialCode": "+683",
      "flag": "ðŸ‡³ðŸ‡º",
      "name": "Niue",
      "nationality": "Niuean"
    },
    {
      "code": "NZ",
      "currency": "NZD",
      "dialCode": "+64",
      "flag": "ðŸ‡³ðŸ‡¿",
      "name": "New Zealand",
      "nationality": "New Zealander"
    },
    {
      "code": "OM",
      "currency": "OMR",
      "dialCode": "+968",
      "flag": "ðŸ‡´ðŸ‡²",
      "name": "Oman",
      "nationality": "Omani"
    },
    {
      "code": "PA",
      "currency": "PAB",
      "dialCode": "+507",
      "flag": "ðŸ‡µðŸ‡¦",
      "name": "Panama",
      "nationality": "Panamanian"
    },
    {
      "code": "PE",
      "currency": "PEN",
      "dialCode": "+51",
      "flag": "ðŸ‡µðŸ‡ª",
      "name": "Peru",
      "nationality": "Peruvian"
    },
    {
      "code": "PF",
      "currency": "XPF",
      "dialCode": "+689",
      "flag": "ðŸ‡µðŸ‡«",
      "name": "French Polynesia",
      "nationality": "French Polynesian"
    },
    {
      "code": "PG",
      "currency": "PGK",
      "dialCode": "+675",
      "flag": "ðŸ‡µðŸ‡¬",
      "name": "Papua New Guinea",
      "nationality": "Papua New Guinean"
    },
    {
      "code": "PH",
      "currency": "PHP",
      "dialCode": "+63",
      "flag": "ðŸ‡µðŸ‡­",
      "name": "Philippines",
      "nationality": "Filipino"
    },
    {
      "code": "PK",
      "currency": "PKR",
      "dialCode": "+92",
      "flag": "ðŸ‡µðŸ‡°",
      "name": "Pakistan",
      "nationality": "Pakistani"
    },
    {
      "code": "PL",
      "currency": "PLN",
      "dialCode": "+48",
      "flag": "ðŸ‡µðŸ‡±",
      "name": "Poland",
      "nationality": "Polish"
    },
    {
      "code": "PM",
      "currency": "EUR",
      "dialCode": "+508",
      "flag": "ðŸ‡µðŸ‡²",
      "name": "Saint Pierre and Miquelon",
      "nationality": "French"
    },
    {
      "code": "PN",
      "currency": "NZD",
      "dialCode": "+872",
      "flag": "ðŸ‡µðŸ‡³",
      "name": "Pitcairn Islands",
      "nationality": "Pitcairn Islander"
    },
    {
      "code": "PR",
      "currency": "USD",
      "dialCode": "+1",
      "flag": "ðŸ‡µðŸ‡·",
      "name": "Puerto Rico",
      "nationality": "Puerto Rican"
    },
    {
      "code": "PS",
      "currency": "ILS",
      "dialCode": "+970",
      "flag": "ðŸ‡µðŸ‡¸",
      "name": "Palestinian Territory, Occupied",
      "nationality": "Palestinian"
    },
    {
      "code": "PT",
      "currency": "EUR",
      "dialCode": "+351",
      "flag": "ðŸ‡µðŸ‡¹",
      "name": "Portugal",
      "nationality": "Portuguese"
    },
    {
      "code": "PW",
      "currency": "USD",
      "dialCode": "+680",
      "flag": "ðŸ‡µðŸ‡¼",
      "name": "Palau",
      "nationality": "Palauan"
    },
    {
      "code": "PY",
      "currency": "PYG",
      "dialCode": "+595",
      "flag": "ðŸ‡µðŸ‡¾",
      "name": "Paraguay",
      "nationality": "Paraguayan"
    },
    {
      "code": "QA",
      "currency": "QAR",
      "dialCode": "+974",
      "flag": "ðŸ‡¶ðŸ‡¦",
      "name": "Qatar",
      "nationality": "Qatari"
    },
    {
      "code": "RE",
      "currency": "EUR",
      "dialCode": "+262",
      "flag": "ðŸ‡·ðŸ‡ª",
      "name": "RÃ©union",
      "nationality": "French"
    },
    {
      "code": "RO",
      "currency": "RON",
      "dialCode": "+40",
      "flag": "ðŸ‡·ðŸ‡´",
      "name": "Romania",
      "nationality": "Romanian"
    },
    {
      "code": "RS",
      "currency": "RSD",
      "dialCode": "+381",
      "flag": "ðŸ‡·ðŸ‡¸",
      "name": "Serbia",
      "nationality": "Serbian"
    },
    {
      "code": "RU",
      "currency": "RUB",
      "dialCode": "+7",
      "flag": "ðŸ‡·ðŸ‡º",
      "name": "Russia",
      "nationality": "Russian"
    },
    {
      "code": "SA",
      "currency": "SAR",
      "dialCode": "+966",
      "flag": "ðŸ‡¸ðŸ‡¦",
      "name": "Saudi Arabia",
      "nationality": "Saudi Arabian"
    },
    {
      "code": "SB",
      "currency": "SBD",
      "dialCode": "+677",
      "flag": "ðŸ‡¸ðŸ‡§",
      "name": "Solomon Islands",
      "nationality": "Solomon Islander"
    },
    {
      "code": "SC",
      "currency": "SCR",
      "dialCode": "+248",
      "flag": "ðŸ‡¸ðŸ‡¨",
      "name": "Seychelles",
      "nationality": "Seychellois"
    },
    {
      "code": "SD",
      "currency": "SDG",
      "dialCode": "+249",
      "flag": "ðŸ‡¸ðŸ‡©",
      "name": "Sudan",
      "nationality": "Sudanese"
    },
    {
      "code": "SE",
      "currency": "SEK",
      "dialCode": "+46",
      "flag": "ðŸ‡¸ðŸ‡ª",
      "name": "Sweden",
      "nationality": "Swedish"
    },
    {
      "code": "SG",
      "currency": "SGD",
      "dialCode": "+65",
      "flag": "ðŸ‡¸ðŸ‡¬",
      "name": "Singapore",
      "nationality": "Singaporean"
    },
    {
      "code": "SH",
      "currency": "SHP",
      "dialCode": "+290",
      "flag": "ðŸ‡¸ðŸ‡­",
      "name": "Saint Helena, Ascension and Tristan Da Cunha",
      "nationality": "Saint Helenian"
    },
    {
      "code": "SI",
      "currency": "EUR",
      "dialCode": "+386",
      "flag": "ðŸ‡¸ðŸ‡®",
      "name": "Slovenia",
      "nationality": "Slovene"
    },
    {
      "code": "SJ",
      "currency": "NOK",
      "dialCode": "+47",
      "flag": "ðŸ‡¸ðŸ‡¯",
      "name": "Svalbard and Jan Mayen",
      "nationality": "Norwegian"
    },
    {
      "code": "SK",
      "currency": "EUR",
      "dialCode": "+421",
      "flag": "ðŸ‡¸ðŸ‡°",
      "name": "Slovakia",
      "nationality": "Slovak"
    },
    {
      "code": "SL",
      "currency": "SLL",
      "dialCode": "+232",
      "flag": "ðŸ‡¸ðŸ‡±",
      "name": "Sierra Leone",
      "nationality": "Sierra Leonean"
    },
    {
      "code": "SM",
      "currency": "EUR",
      "dialCode": "+378",
      "flag": "ðŸ‡¸ðŸ‡²",
      "name": "San Marino",
      "nationality": "Sammarinese"
    },
    {
      "code": "SN",
      "currency": "XOF",
      "dialCode": "+221",
      "flag": "ðŸ‡¸ðŸ‡³",
      "name": "Senegal",
      "nationality": "Senegalese"
    },
    {
      "code": "SO",
      "currency": "SOS",
      "dialCode": "+252",
      "flag": "ðŸ‡¸ðŸ‡´",
      "name": "Somalia",
      "nationality": "Somali"
    },
    {
      "code": "SR",
      "currency": "SRD",
      "dialCode": "+597",
      "flag": "ðŸ‡¸ðŸ‡·",
      "name": "Suriname",
      "nationality": "Surinamer"
    },
    {
      "code": "SS",
      "currency": "SSP",
      "dialCode": "+211",
      "flag": "ðŸ‡¸ðŸ‡¸",
      "name": "South Sudan",
      "nationality": "South Sudanese"
    },
    {
      "code": "ST",
      "currency": "STD",
      "dialCode": "+239",
      "flag": "ðŸ‡¸ðŸ‡¹",
      "name": "SÃ£o TomÃ© and PrÃ­ncipe",
      "nationality": "Sao Tomean"
    },
    {
      "code": "SV",
      "currency": "SVC",
      "dialCode": "+503",
      "flag": "ðŸ‡¸ðŸ‡»",
      "name": "El Salvador",
      "nationality": "Salvadoran"
    },
    {
      "code": "SX",
      "currency": "ANG",
      "dialCode": "+1",
      "flag": "ðŸ‡¸ðŸ‡½",
      "name": "Sint Maarten",
      "nationality": "Dutch"
    },
    {
      "code": "SY",
      "currency": "SYP",
      "dialCode": "+963",
      "flag": "ðŸ‡¸ðŸ‡¾",
      "name": "Syrian Arab Republic",
      "nationality": "Syrian"
    },
    {
      "code": "SZ",
      "currency": "SZL",
      "dialCode": "+268",
      "flag": "ðŸ‡¸ðŸ‡¿",
      "name": "Swaziland",
      "nationality": "Swazi"
    },
    {
      "code": "TC",
      "currency": "USD",
      "dialCode": "+1",
      "flag": "ðŸ‡¹ðŸ‡¨",
      "name": "Turks and Caicos Islands",
      "nationality": "Turks and Caicos Islander"
    },
    {
      "code": "TD",
      "currency": "XAF",
      "dialCode": "+235",
      "flag": "ðŸ‡¹ðŸ‡©",
      "name": "Chad",
      "nationality": "Chadian"
    },
    {
      "code": "TF",
      "currency": "EUR",
      "dialCode": "+262",
      "flag": "ðŸ‡¹ðŸ‡«",
      "name": "French Southern Territories",
      "nationality": "French"
    },
    {
      "code": "TG",
      "currency": "XOF",
      "dialCode": "+228",
      "flag": "ðŸ‡¹ðŸ‡¬",
      "name": "Togo",
      "nationality": "Togolese"
    },
    {
      "code": "TH",
      "currency": "THB",
      "dialCode": "+66",
      "flag": "ðŸ‡¹ðŸ‡­",
      "name": "Thailand",
      "nationality": "Thai"
    },
    {
      "code": "TJ",
      "currency": "TJS",
      "dialCode": "+992",
      "flag": "ðŸ‡¹ðŸ‡¯",
      "name": "Tajikistan",
      "nationality": "Tadzhik"
    },
    {
      "code": "TK",
      "currency": "NZD",
      "dialCode": "+690",
      "flag": "ðŸ‡¹ðŸ‡°",
      "name": "Tokelau",
      "nationality": "Tokelauan"
    },
    {
      "code": "TL",
      "currency": "USD",
      "dialCode": "+670",
      "flag": "ðŸ‡¹ðŸ‡±",
      "name": "East Timor",
      "nationality": "East Timorese"
    },
    {
      "code": "TM",
      "currency": "TMT",
      "dialCode": "+993",
      "flag": "ðŸ‡¹ðŸ‡²",
      "name": "Turkmenistan",
      "nationality": "Turkmen"
    },
    {
      "code": "TN",
      "currency": "TND",
      "dialCode": "+216",
      "flag": "ðŸ‡¹ðŸ‡³",
      "name": "Tunisia",
      "nationality": "Tunisian"
    },
    {
      "code": "TO",
      "currency": "TOP",
      "dialCode": "+676",
      "flag": "ðŸ‡¹ðŸ‡´",
      "name": "Tonga",
      "nationality": "Tongan"
    },
    {
      "code": "TR",
      "currency": "TRY",
      "dialCode": "+90",
      "flag": "ðŸ‡¹ðŸ‡·",
      "name": "Turkey",
      "nationality": "Turkish"
    },
    {
      "code": "TT",
      "currency": "TTD",
      "dialCode": "+1",
      "flag": "ðŸ‡¹ðŸ‡¹",
      "name": "Trinidad and Tobago",
      "nationality": "Trinidadian"
    },
    {
      "code": "TV",
      "currency": "AUD",
      "dialCode": "+688",
      "flag": "ðŸ‡¹ðŸ‡»",
      "name": "Tuvalu",
      "nationality": "Tuvaluan"
    },
    {
      "code": "TW",
      "currency": "TWD",
      "dialCode": "+886",
      "flag": "ðŸ‡¹ðŸ‡¼",
      "name": "Taiwan",
      "nationality": "Taiwanese"
    },
    {
      "code": "TZ",
      "currency": "TZS",
      "dialCode": "+255",
      "flag": "ðŸ‡¹ðŸ‡¿",
      "name": "Tanzania",
      "nationality": "Tanzanian"
    },
    {
      "code": "UA",
      "currency": "UAH",
      "dialCode": "+380",
      "flag": "ðŸ‡ºðŸ‡¦",
      "name": "Ukraine",
      "nationality": "Ukrainian"
    },
    {
      "code": "UG",
      "currency": "UGX",
      "dialCode": "+256",
      "flag": "ðŸ‡ºðŸ‡¬",
      "name": "Uganda",
      "nationality": "Ugandan"
    },
    {
      "code": "UM",
      "currency": "USD",
      "dialCode": "+1",
      "flag": "ðŸ‡ºðŸ‡²",
      "name": "U.S. Minor Outlying Islands",
      "nationality": "American"
    },
    {
      "code": "US",
      "currency": "USD",
      "dialCode": "+1",
      "flag": "ðŸ‡ºðŸ‡¸",
      "name": "United States",
      "nationality": "American"
    },
    {
      "code": "UY",
      "currency": "UYU",
      "dialCode": "+598",
      "flag": "ðŸ‡ºðŸ‡¾",
      "name": "Uruguay",
      "nationality": "Uruguayan"
    },
    {
      "code": "UZ",
      "currency": "UZS",
      "dialCode": "+998",
      "flag": "ðŸ‡ºðŸ‡¿",
      "name": "Uzbekistan",
      "nationality": "Uzbekistani"
    },
    {
      "code": "VA",
      "currency": "EUR",
      "dialCode": "+379",
      "flag": "ðŸ‡»ðŸ‡¦",
      "name": "Holy See (Vatican City State)",
      "nationality": "Italian"
    },
    {
      "code": "VC",
      "currency": "XCD",
      "dialCode": "+1",
      "flag": "ðŸ‡»ðŸ‡¨",
      "name": "Saint Vincent and the Grenadines",
      "nationality": "Saint Vincentian"
    },
    {
      "code": "VE",
      "currency": "VEF",
      "dialCode": "+58",
      "flag": "ðŸ‡»ðŸ‡ª",
      "name": "Venezuela",
      "nationality": "Venezuelan"
    },
    {
      "code": "VG",
      "currency": "USD",
      "dialCode": "+1",
      "flag": "ðŸ‡»ðŸ‡¬",
      "name": "Virgin Islands, U.S.",
      "nationality": "Virgin Islander"
    },
    {
      "code": "VN",
      "currency": "VND",
      "dialCode": "+84",
      "flag": "ðŸ‡»ðŸ‡³",
      "name": "Vietnam",
      "nationality": "Vietnamese"
    },
    {
      "code": "VU",
      "currency": "VUV",
      "dialCode": "+678",
      "flag": "ðŸ‡»ðŸ‡º",
      "name": "Vanuatu",
      "nationality": "Ni-Vanuatu"
    },
    {
      "code": "WF",
      "currency": "XPF",
      "dialCode": "+681",
      "flag": "ðŸ‡¼ðŸ‡«",
      "name": "Wallis and Futuna",
      "nationality": "Wallis and Futuna Islander"
    },
    {
      "code": "WS",
      "currency": "WST",
      "dialCode": "+685",
      "flag": "ðŸ‡¼ðŸ‡¸",
      "name": "Samoa",
      "nationality": "Samoan"
    },
    {
      "code": "XK",
      "currency": "EUR",
      "dialCode": "+383",
      "flag": "ðŸ‡½ðŸ‡°",
      "name": "Kosovo",
      "nationality": "Albanians"
    },
    {
      "code": "YE",
      "currency": "YER",
      "dialCode": "+967",
      "flag": "ðŸ‡¾ðŸ‡ª",
      "name": "Yemen",
      "nationality": "Yemeni"
    },
    {
      "code": "YT",
      "currency": "EUR",
      "dialCode": "+262",
      "flag": "ðŸ‡¾ðŸ‡¹",
      "name": "Mayotte",
      "nationality": "French"
    },
    {
      "code": "ZA",
      "currency": "ZAR",
      "dialCode": "+27",
      "flag": "ðŸ‡¿ðŸ‡¦",
      "name": "South Africa",
      "nationality": "South African"
    },
    {
      "code": "ZM",
      "currency": "ZMW",
      "dialCode": "+260",
      "flag": "ðŸ‡¿ðŸ‡²",
      "name": "Zambia",
      "nationality": "Zambian"
    },
    {
      "code": "ZW",
      "currency": "USD",
      "dialCode": "+263",
      "flag": "ðŸ‡¿ðŸ‡¼",
      "name": "Zimbabwe",
      "nationality": "Zimbabwean"
    }
  ]
}